ONEWEB-0207             
1 48242U 21031AJ  24250.50242456 -.00000349  00000+0 -97575-3 0  9991
2 48242  87.8935  58.6947 0001798  85.1890 274.9445 13.14503140163071
ONEWEB-0208             
1 48243U 21031AK  24250.48420270 -.00000237  00000+0 -67445-3 0  9990
2 48243  87.8937  58.7131 0001829  92.0233 268.1106 13.14501465163081
ONEWEB-0200             
1 48244U 21031AL  24250.98055895  .00000056  00000+0  11553-3 0  9999
2 48244  87.8932  58.6103 0001873  93.8140 266.3204 13.14500975163084
ONEWEB-0217             
1 48245U 21031AM  24250.53971026  .00000244  00000+0  62368-3 0  9993
2 48245  87.8935  58.6825 0001927  97.1677 262.9672 13.14500396162976
ONEWEB-0211             
1 48767U 21045A   24251.08660034 -.00002511  00000+0 -67084-2 0  9992
2 48767  87.9079  28.1408 0001752  98.5138 261.6191 13.15530365160337
ONEWEB-0223             
1 48768U 21045B   24251.10877418  .00000035  00000+0  59013-4 0  9994
2 48768  87.9082  28.1466 0001608 119.6060 240.5230 13.15550711160332
ONEWEB-0230             
1 48769U 21045C   24250.47180322  .00000209  00000+0  52208-3 0  9996
2 48769  87.9081  28.3426 0001561  94.8168 265.3141 13.15548768159378
ONEWEB-0237             
1 48770U 21045D   24251.14521795  .00000226  00000+0  56652-3 0  9992
2 48770  87.9088  28.1448 0001570 109.2201 250.9099 13.15546573160318
